SPAWAR-CAL-O            
1 43766U 18099J   26068.73975788  .00021069  00000+0  69663-3 0  9999
2 43766  97.4452 132.0993 0007239 285.0670  74.9770 15.31356755398280
STARLINK-35571          
1 66089U 25236D   26068.80408840  .00018403  00000+0  63193-3 0  9991
2 66089  53.1593 103.2323 0001477  88.6580 271.4590 15.30200179 22960
