[{"OBJECT_NAME":"SPAWAR-CAL-O","OBJECT_ID":"2018-099J","EPOCH":"2026-03-09T17:45:15.080832","MEAN_MOTION":15.31356755,"ECCENTRICITY":0.00072392,"INCLINATION":97.4452,"RA_OF_ASC_NODE":132.0993,"ARG_OF_PERICENTER":285.067,"MEAN_ANOMALY":74.977,"EPHEMERIS_TYPE":0,"CLASSIFICATION_TYPE":"U","NORAD_CAT_ID":43766,"ELEMENT_SET_NO":999,"REV_AT_EPOCH":39828,"BSTAR":0.00069663212,"MEAN_MOTION_DOT":0.00021069,"MEAN_MOTION_DDOT":0},{"OBJECT_NAME":"STARLINK-35571","OBJECT_ID":"2025-236D","EPOCH":"2026-03-09T19:17:53.238624","MEAN_MOTION":15.30200179,"ECCENTRICITY":0.00014767,"INCLINATION":53.1593,"RA_OF_ASC_NODE":103.2323,"ARG_OF_PERICENTER":88.658,"MEAN_ANOMALY":271.459,"EPHEMERIS_TYPE":0,"CLASSIFICATION_TYPE":"U","NORAD_CAT_ID":66089,"ELEMENT_SET_NO":999,"REV_AT_EPOCH":2296,"BSTAR":0.00063193453,"MEAN_MOTION_DOT":0.00018403,"MEAN_MOTION_DDOT":0}]
